[{"OBJECT_NAME":"SHIJIAN-6 05A (SJ-6 05A)","OBJECT_ID":"2021-122A","EPOCH":"2026-03-09T21:12:10.842048","MEAN_MOTION":14.99085264,"ECCENTRICITY":0.0003221,"INCLINATION":97.4012,"RA_OF_ASC_NODE":42.3306,"ARG_OF_PERICENTER":76.6317,"MEAN_ANOMALY":283.5266,"EPHEMERIS_TYPE":0,"CLASSIFICATION_TYPE":"U","NORAD_CAT_ID":49961,"ELEMENT_SET_NO":999,"REV_AT_EPOCH":23387,"BSTAR":0.00027617,"MEAN_MOTION_DOT":3.299e-5,"MEAN_MOTION_DDOT":0},{"OBJECT_NAME":"STARLINK-4429","OBJECT_ID":"2022-099AG","EPOCH":"2026-03-09T21:09:08.617536","MEAN_MOTION":15.01256619,"ECCENTRICITY":6.054e-5,"INCLINATION":97.6006,"RA_OF_ASC_NODE":190.4052,"ARG_OF_PERICENTER":159.7351,"MEAN_ANOMALY":200.3898,"EPHEMERIS_TYPE":0,"CLASSIFICATION_TYPE":"U","NORAD_CAT_ID":53495,"ELEMENT_SET_NO":999,"REV_AT_EPOCH":19601,"BSTAR":-5.1155937e-5,"MEAN_MOTION_DOT":-7.15e-6,"MEAN_MOTION_DDOT":0}]
