SHIJIAN-6 05A (SJ-6 05A)
1 49961U 21122A   26068.88345882  .00003299  00000+0  27617-3 0  9993
2 49961  97.4012  42.3306 0003221  76.6317 283.5266 14.99085264233873
STARLINK-4429           
1 53495U 22099AG  26068.88134973 -.00000715  00000+0 -51156-4 0  9999
2 53495  97.6006 190.4052 0000605 159.7351 200.3898 15.01256619196012
